NORAD_CAT_ID,OBJECT_NAME,OBJECT_TYPE,EPOCH,MEAN_MOTION,ECCENTRICITY,INCLINATION,RA_OF_ASC_NODE,ARG_OF_PERICENTER,MEAN_ANOMALY,BSTAR,MEAN_MOTION_DOT,MEAN_MOTION_DDOT,TLE_LINE0,TLE_LINE1,TLE_LINE2,SEMIMAJOR_AXIS,PERIOD,APOGEE,PERIGEE,DECAYED
50823.0,STARLINK-3334,PAYLOAD,2023-05-05 09:40:49,15.08846174,8.65e-05,53.2162,154.653,91.633,268.4761,0.00014659,2.046e-05,0.0,0 STARLINK-3334,1 50823U 22001W   23125.40335640  .00002046  00000-0  14659-3 0  9991,2 50823  53.2162 154.6530 0000865  91.6330 268.4761 15.08846174 74799,6917.862,95.437,540.325,539.128,0.0
50823.0,STARLINK-3334,PAYLOAD,2023-05-05 19:13:09,15.08842808,8.95e-05,53.2159,152.8694,82.8656,277.2437,0.00012254,1.663e-05,0.0,0 STARLINK-3334,1 50823U 22001W   23125.80079962  .00001663  00000-0  12254-3 0  9990,2 50823  53.2159 152.8694 0000895  82.8656 277.2437 15.08842808 73575,6917.872,95.437,540.356,539.118,0.0
50823.0,STARLINK-3334,PAYLOAD,2023-05-05 23:59:18,15.08839188,9.1e-05,53.2162,151.9769,94.5308,265.5788,6.4385e-05,7.37e-06,0.0,0 STARLINK-3334,1 50823U 22001W   23125.99952328  .00000737  00000-0  64385-4 0  9990,2 50823  53.2162 151.9769 0000910  94.5308 265.5788 15.08839188 74885,6917.883,95.438,540.377,539.118,0.0
50823.0,STARLINK-3334,PAYLOAD,2023-05-06 11:07:00,15.08844611,9.07e-05,53.2162,149.8951,95.9695,264.14,0.00010167,1.331e-05,0.0,0 STARLINK-3334,1 50823U 22001W   23126.46319994  .00001331  00000-0  10167-3 0  9998,2 50823  53.2162 149.8951 0000907  95.9695 264.1400 15.08844611 73673,6917.866,95.437,540.359,539.104,0.0
50823.0,STARLINK-3334,PAYLOAD,2023-05-07 07:47:00,15.08847368,8.93e-05,53.216,146.0283,97.0565,263.0529,4.2313e-05,3.86e-06,0.0,0 STARLINK-3334,1 50823U 22001W   23127.32431677  .00000386  00000-0  42313-4 0  9995,2 50823  53.2160 146.0283 0000893  97.0565 263.0529 15.08847368 75080,6917.858,95.437,540.341,539.105,0.0
50823.0,STARLINK-3334,PAYLOAD,2023-05-08 04:27:02,15.08834109,0.000114,53.2164,142.1613,135.0029,225.1056,3.5509e-05,2.77e-06,0.0,0 STARLINK-3334,1 50823U 22001W   23128.18544528  .00000277  00000-0  35509-4 0  9998,2 50823  53.2164 142.1613 0001140 135.0029 225.1056 15.08834109 75210,6917.898,95.438,540.552,538.975,0.0
50823.0,STARLINK-3334,PAYLOAD,2023-05-08 07:37:51,15.08798517,7.61e-05,53.2164,141.5675,76.8719,283.2358,-0.00027361,-4.634e-05,0.0,0 STARLINK-3334,1 50823U 22001W   23128.31795674 -.00004634  00000-0 -27361-3 0  9992,2 50823  53.2164 141.5675 0000761  76.8719 283.2358 15.08798517 75231,6918.007,95.44,540.399,539.346,0.0
50823.0,STARLINK-3334,PAYLOAD,2023-05-09 04:17:51,15.08822852,9.4e-05,53.217,137.7077,51.1927,308.9149,5.7203e-05,6.22e-06,0.0,0 STARLINK-3334,1 50823U 22001W   23129.17906314  .00000622  00000-0  57203-4 0  9992,2 50823  53.2170 137.7077 0000940  51.1927 308.9149 15.08822852 75364,6917.933,95.439,540.448,539.148,0.0
50823.0,STARLINK-3334,PAYLOAD,2023-05-09 07:28:36,15.08839281,8.88e-05,53.2166,137.109,76.0124,284.0967,7.7511e-05,9.46e-06,0.0,0 STARLINK-3334,1 50823U 22001W   23129.31153381  .00000946  00000-0  77511-4 0  9999,2 50823  53.2166 137.1090 0000888  76.0124 284.0967 15.08839281 74101,6917.883,95.438,540.362,539.133,0.0
50823.0,STARLINK-3334,PAYLOAD,2023-05-10 07:19:23,15.08831883,9.94e-05,53.2167,132.6495,60.9585,299.1506,0.00056421,8.701e-05,0.0,0 STARLINK-3334,1 50823U 22001W   23130.30513258  .00008701  00000-0  56421-3 0  9996,2 50823  53.2167 132.6495 0000994  60.9585 299.1506 15.08831883 74254,6917.905,95.438,540.458,539.083,0.0
50823.0,STARLINK-3334,PAYLOAD,2023-05-10 16:51:42,15.08840972,0.0001161,53.2154,130.8633,50.891,309.2185,0.00043578,6.655e-05,0.0,0 STARLINK-3334,1 50823U 22001W   23130.70257797  .00006655  00000-0  43578-3 0  9998,2 50823  53.2154 130.8633 0001161  50.8910 309.2185 15.08840972 75594,6917.877,95.437,540.546,538.939,0.0
50823.0,STARLINK-3334,PAYLOAD,2023-05-11 07:10:10,15.0884773,0.0001155,53.2168,128.1881,55.0713,305.0388,8.2762e-05,1.03e-05,0.0,0 STARLINK-3334,1 50823U 22001W   23131.29873332  .00001030  00000-0  82762-4 0  9993,2 50823  53.2168 128.1881 0001155  55.0713 305.0388 15.08847730 74402,6917.857,95.437,540.521,538.923,0.0
50823.0,STARLINK-3334,PAYLOAD,2023-05-11 16:42:28,15.0885609,0.0001138,53.2169,126.4038,59.3592,300.7512,0.00013225,1.818e-05,0.0,0 STARLINK-3334,1 50823U 22001W   23131.69616374  .00001818  00000-0  13225-3 0  9999,2 50823  53.2169 126.4038 0001138  59.3592 300.7512 15.08856090 75749,6917.831,95.437,540.483,538.909,0.0
50823.0,STARLINK-3334,PAYLOAD,2023-05-12 03:50:09,15.08862451,0.0001164,53.2172,124.3229,62.2427,297.8683,9.6286e-05,1.246e-05,0.0,0 STARLINK-3334,1 50823U 22001W   23132.15983523  .00001246  00000-0  96286-4 0  9998,2 50823  53.2172 124.3229 0001164  62.2427 297.8683 15.08862451 74530,6917.812,95.436,540.482,538.872,0.0
50823.0,STARLINK-3334,PAYLOAD,2023-05-12 16:33:15,15.08851173,0.0001258,53.2177,121.9451,64.5936,295.5186,5.9385e-05,6.58e-06,0.0,0 STARLINK-3334,1 50823U 22001W   23132.68975868  .00000658  00000-0  59385-4 0  9994,2 50823  53.2177 121.9451 0001258  64.5936 295.5186 15.08851173 74610,6917.846,95.437,540.582,538.841,0.0
50823.0,STARLINK-3334,PAYLOAD,2023-05-12 22:54:48,15.08844152,0.000107,53.2172,120.754,74.7451,285.3659,6.217e-05,7.02e-06,0.0,0 STARLINK-3334,1 50823U 22001W   23132.95472247  .00000702  00000-0  62170-4 0  9993,2 50823  53.2172 120.7540 0001070  74.7451 285.3659 15.08844152 75935,6917.868,95.437,540.473,538.992,0.0
50823.0,STARLINK-3334,PAYLOAD,2023-05-13 06:51:44,15.08840095,0.0001179,53.2172,119.2663,69.7282,290.3837,1.6278e-05,-2.9e-07,0.0,0 STARLINK-3334,1 50823U 22001W   23133.28592621 -.00000029  00000-0  16278-4 0  9990,2 50823  53.2172 119.2663 0001179  69.7282 290.3837 15.08840095 74700,6917.88,95.438,540.561,538.929,0.0
50823.0,STARLINK-3334,PAYLOAD,2023-05-13 16:24:02,15.08838797,0.0001197,53.2171,117.4834,68.3734,291.7385,-4.8368e-05,-1.058e-05,0.0,0 STARLINK-3334,1 50823U 22001W   23133.68336804 -.00001058  00000-0 -48368-4 0  9992,2 50823  53.2171 117.4834 0001197  68.3734 291.7385 15.08838797 74761,6917.884,95.438,540.577,538.921,0.0
50823.0,STARLINK-3334,PAYLOAD,2023-05-14 05:07:08,15.08838835,0.0001228,53.2168,115.1045,70.112,290.0004,-7.1899e-05,-1.432e-05,0.0,0 STARLINK-3334,1 50823U 22001W   23134.21328918 -.00001432  00000-0 -71899-4 0  9990,2 50823  53.2168 115.1045 0001228  70.1120 290.0004 15.08838835 76126,6917.884,95.438,540.598,538.899,0.0
50823.0,STARLINK-3334,PAYLOAD,2023-05-14 16:14:49,15.08843264,0.000109,53.2172,113.0231,90.3048,269.8069,-4.4382e-05,-9.94e-06,0.0,0 STARLINK-3334,1 50823U 22001W   23134.67696477 -.00000994  00000-0 -44382-4 0  9997,2 50823  53.2172 113.0231 0001090  90.3048 269.8069 15.08843264 74917,6917.87,95.437,540.489,538.981,0.0
50823.0,STARLINK-3334,PAYLOAD,2023-05-15 04:57:55,15.08840528,0.0001219,53.2166,110.6421,84.4737,275.6394,0.0002558,3.786e-05,0.0,0 STARLINK-3334,1 50823U 22001W   23135.20688908  .00003786  00000-0  25580-3 0  9995,2 50823  53.2166 110.6421 0001219  84.4737 275.6394 15.08840528 74990,6917.879,95.438,540.587,538.9,0.0
50823.0,STARLINK-3334,PAYLOAD,2023-05-16 04:48:42,15.08836161,0.0001218,53.2165,106.1812,87.2856,272.8275,0.00014141,1.963e-05,0.0,0 STARLINK-3334,1 50823U 22001W   23136.20049472  .00001963  00000-0  14141-3 0  9999,2 50823  53.2165 106.1812 0001218  87.2856 272.8275 15.08836161 76420,6917.892,95.438,540.6,538.915,0.0
50823.0,STARLINK-3334,PAYLOAD,2023-05-16 22:17:57,15.08839018,0.0001244,53.2167,102.9102,87.2742,272.8393,3.3541e-05,2.46e-06,0.0,0 STARLINK-3334,1 50823U 22001W   23136.92913388  .00000246  00000-0  33541-4 0  9993,2 50823  53.2167 102.9102 0001244  87.2742 272.8393 15.08839018 75256,6917.883,95.438,540.609,538.888,0.0
50823.0,STARLINK-3334,PAYLOAD,2023-05-17 04:39:29,15.08843658,0.0001191,53.2177,101.7219,87.7207,272.3921,8.4424e-05,1.056e-05,0.0,0 STARLINK-3334,1 50823U 22001W   23137.19409115  .00001056  00000-0  84424-4 0  9997,2 50823  53.2177 101.7219 0001191  87.7207 272.3921 15.08843658 75296,6917.869,95.437,540.558,538.91,0.0
50823.0,STARLINK-3334,PAYLOAD,2023-05-18 02:54:54,15.08829371,0.0001221,53.2177,97.5613,93.4911,266.6221,4.6773e-05,4.56e-06,0.0,0 STARLINK-3334,1 50823U 22001W   23138.12146421  .00000456  00000-0  46773-4 0  9997,2 50823  53.2177  97.5613 0001221  93.4911 266.6221 15.08829371 76719,6917.913,95.438,540.623,538.933,0.0
50823.0,STARLINK-3334,PAYLOAD,2023-05-18 06:05:40,15.08830556,0.0001178,53.2176,96.9657,89.9007,270.212,4.4192e-05,4.15e-06,0.0,0 STARLINK-3334,1 50823U 22001W   23138.25394374  .00000415  00000-0  44192-4 0  9991,2 50823  53.2176  96.9657 0001178  89.9007 270.2120 15.08830556 75452,6917.909,95.438,540.589,538.959,0.0
50823.0,STARLINK-3334,PAYLOAD,2023-05-18 21:59:31,15.08840674,0.0001142,53.2174,93.9912,86.1571,273.9552,5.6849e-05,6.17e-06,0.0,0 STARLINK-3334,1 50823U 22001W   23138.91633879  .00000617  00000-0  56849-4 0  9996,2 50823  53.2174  93.9912 0001142  86.1571 273.9552 15.08840674 75559,6917.878,95.438,540.533,538.953,0.0
50823.0,STARLINK-3334,PAYLOAD,2023-05-19 04:21:03,15.08845746,0.0001152,53.2178,92.802,86.8309,273.2815,9.5453e-05,1.232e-05,0.0,0 STARLINK-3334,1 50823U 22001W   23139.18129445  .00001232  00000-0  95453-4 0  9993,2 50823  53.2178  92.8020 0001152  86.8309 273.2815 15.08845746 76874,6917.863,95.437,540.525,538.931,0.0
50823.0,STARLINK-3334,PAYLOAD,2023-05-19 05:56:26,15.08848093,0.0001176,53.2177,92.5047,87.9708,272.1419,0.00011445,1.534e-05,0.0,0 STARLINK-3334,1 50823U 22001W   23139.24753227  .00001534  00000-0  11445-3 0  9994,2 50823  53.2177  92.5047 0001176  87.9708 272.1419 15.08848093 75606,6917.856,95.437,540.534,538.907,0.0
50823.0,STARLINK-3334,PAYLOAD,2023-05-20 04:11:51,15.08841091,0.0001269,53.2178,88.3413,93.6036,266.5101,0.00010534,1.389e-05,0.0,0 STARLINK-3334,1 50823U 22001W   23140.17489871  .00001389  00000-0  10534-3 0  9995,2 50823  53.2178  88.3413 0001269  93.6036 266.5101 15.08841091 77022,6917.877,95.437,540.62,538.864,0.0
